[Satellite]
VERSION=1.1
NAME=KODAMA (DRTS)
NICKNAME=KODAMA (DRTS)
TLE1=1 27516U 02042B   17186.01924240 -.00000248  00000-0  00000-0 0  9999
TLE2=2 27516   5.0728  61.9747 0001554  61.9597 256.8988  1.00272249 54272
